NORAD_CAT_ID,OBJECT_NAME,OBJECT_TYPE,EPOCH,MEAN_MOTION,ECCENTRICITY,INCLINATION,RA_OF_ASC_NODE,ARG_OF_PERICENTER,MEAN_ANOMALY,BSTAR,MEAN_MOTION_DOT,MEAN_MOTION_DDOT,TLE_LINE0,TLE_LINE1,TLE_LINE2,SEMIMAJOR_AXIS,PERIOD,APOGEE,PERIGEE,DECAYED
52623.0,STARLINK-3986,PAYLOAD,2022-06-09 04:00:00,15.7319419,9.82e-05,53.2137,314.2413,65.4118,11.7052,-0.00033595,-0.00047489,0.0,0 STARLINK-3986,1 52623U 22052AB  22160.16667824 -.00047489  00000-0 -33595-3 0  9992,2 52623  53.2137 314.2413 0000982  65.4118  11.7052 15.73194190  4373,6727.9119999999975,91.534,350.43699999999984,349.116,0.0
52623.0,STARLINK-3986,PAYLOAD,2022-06-09 14:00:01,15.73156857,0.0001158,53.2133,312.1799,66.0723,212.1777,2.2972e-05,2.6e-05,0.0,0 STARLINK-3986,1 52623U 22052AB  22160.58334491  .00002600  00000-0  22972-4 0  9991,2 52623  53.2133 312.1799 0001158  66.0723 212.1777 15.73156857  1307,6728.018,91.536,350.662,349.10400000000016,0.0
52623.0,STARLINK-3986,PAYLOAD,2022-06-09 20:00:01,15.73140474,0.0001246,53.2131,310.9441,56.1557,198.7641,0.00058084,0.00081482,0.0,0 STARLINK-3986,1 52623U 22052AB  22160.83334491  .00081482  00000-0  58084-3 0  9996,2 52623  53.2131 310.9441 0001246  56.1557 198.7641 15.73140474  4476,6728.065,91.537,350.76800000000014,349.092,0.0
52623.0,STARLINK-3986,PAYLOAD,2022-06-09 22:00:00,15.73157243,0.0001214,53.2127,310.5315,53.8294,313.307,0.00049184,0.00068847,0.0,0 STARLINK-3986,1 52623U 22052AB  22160.91667824  .00068847  00000-0  49184-3 0  9995,2 52623  53.2127 310.5315 0001214  53.8294 313.3070 15.73157243  1306,6728.017,91.536,350.699,349.065,0.0
52623.0,STARLINK-3986,PAYLOAD,2022-06-10 12:00:02,15.73239978,0.0001088,53.2132,307.6424,63.0522,9.7502,1.9074e-05,2.062e-05,0.0,0 STARLINK-3986,1 52623U 22052AB  22161.50002315  .00002062  00000-0  19074-4 0  9992,2 52623  53.2132 307.6424 0001088  63.0522   9.7502 15.73239978  4581,6727.781,91.531,350.37800000000016,348.914,0.0
52623.0,STARLINK-3986,PAYLOAD,2022-06-10 14:00:01,15.732567800000002,0.0001092,53.2132,307.2306,58.7178,126.2593,-0.00028075,-0.00039929,0.0,0 STARLINK-3986,1 52623U 22052AB  22161.58334491 -.00039929  00000-0 -28075-3 0  9997,2 52623  53.2132 307.2306 0001092  58.7178 126.2593 15.73256780  1301,6727.733,91.53,350.333,348.86400000000015,0.0
52623.0,STARLINK-3986,PAYLOAD,2022-06-10 22:00:00,15.73213756,0.000112,53.2129,305.5816,41.6592,232.3203,0.00022388,0.00030934,0.0,0 STARLINK-3986,1 52623U 22052AB  22161.91667824  .00030934  00000-0  22388-3 0  9999,2 52623  53.2129 305.5816 0001120  41.6592 232.3203 15.73213756  1300,6727.856,91.532,350.474,348.967,0.0
52623.0,STARLINK-3986,PAYLOAD,2022-06-11 04:00:00,15.73229946,0.0001042,53.2133,304.3427,49.6639,201.0303,-0.00039761,-0.0005612,0.0,0 STARLINK-3986,1 52623U 22052AB  22162.16667824 -.00056120  00000-0 -39761-3 0  9997,2 52623  53.2133 304.3427 0001042  49.6639 201.0303 15.73229946  4689,6727.81,91.531,350.376,348.974,0.0
52623.0,STARLINK-3986,PAYLOAD,2022-06-11 14:00:01,15.73228519,0.000128,53.2129,302.2816,51.3949,40.4766,-0.0001479,-0.00021349,0.0,0 STARLINK-3986,1 52623U 22052AB  22162.58334491 -.00021349  00000-0 -14790-3 0  9994,2 52623  53.2129 302.2816 0001280  51.3949  40.4766 15.73228519  4752,6727.814,91.532,350.54,348.8180000000001,0.0
52623.0,STARLINK-3986,PAYLOAD,2022-06-11 22:00:00,15.73204898,0.0001441999999999,53.2122,300.6324,47.6624,133.162,-5.8297e-05,-8.795e-05,0.0,0 STARLINK-3986,1 52623U 22052AB  22162.91667824 -.00008795  00000-0 -58297-4 0  9991,2 52623  53.2122 300.6324 0001442  47.6624 133.1620 15.73204898  1300,6727.880999999999,91.533,350.716,348.776,0.0
52623.0,STARLINK-3986,PAYLOAD,2022-06-12 14:00:01,15.73249284,0.0001341999999999,53.213,297.3323,49.9931,308.7018,-0.00058682,-0.00082348,0.0,0 STARLINK-3986,1 52623U 22052AB  22163.58334491 -.00082348  00000-0 -58682-3 0  9999,2 52623  53.2130 297.3323 0001342  49.9931 308.7018 15.73249284  4903,6727.755,91.53,350.523,348.717,0.0
52623.0,STARLINK-3986,PAYLOAD,2022-06-12 20:00:01,15.73200258,0.000146,53.213,296.096,39.5526,295.863,9.8678e-05,0.00013251,0.0,0 STARLINK-3986,1 52623U 22052AB  22163.83334491  .00013251  00000-0  98678-4 0  9992,2 52623  53.2130 296.0960 0001460  39.5526 295.8630 15.73200258  4940,6727.894,91.533,350.742,348.777,0.0
52623.0,STARLINK-3986,PAYLOAD,2022-06-12 22:00:00,15.73231816,0.0001484,53.2129,295.683,40.6683,46.9724,-0.00040642,-0.0005735,0.0,0 STARLINK-3986,1 52623U 22052AB  22163.91667824 -.00057350  00000-0 -40642-3 0  9997,2 52623  53.2129 295.6830 0001484  40.6683  46.9724 15.73231816  1302,6727.804,91.531,350.668,348.671,0.0
52623.0,STARLINK-3986,PAYLOAD,2022-06-13 14:00:01,15.73257593,0.0001520999999999,53.2129,292.3836,44.4719,221.0563,-0.00021488,-0.00030743,0.0,0 STARLINK-3986,1 52623U 22052AB  22164.58334491 -.00030743  00000-0 -21488-3 0  9996,2 52623  53.2129 292.3836 0001521  44.4719 221.0563 15.73257593  1303,6727.731,91.53,350.619,348.5730000000001,0.0
52623.0,STARLINK-3986,PAYLOAD,2022-06-13 22:00:00,15.73262354,0.0001585999999999,53.2124,290.7340000000001,38.6218,315.9032,-0.0006247,-0.00087621,0.0,0 STARLINK-3986,1 52623U 22052AB  22164.91667824 -.00087621  00000-0 -62470-3 0  9995,2 52623  53.2124 290.7340 0001586  38.6218 315.9032 15.73262354  1305,6727.717,91.53,350.649,348.515,0.0
52623.0,STARLINK-3986,PAYLOAD,2022-06-14 12:00:00,15.7320077,0.0001679,53.213,287.8465,48.7512,11.4236,-0.00031912,-0.0004516999999999,0.0,0 STARLINK-3986,1 52623U 22052AB  22165.50001157 -.00045170  00000-0 -31912-3 0  9992,2 52623  53.2130 287.8465 0001679  48.7512  11.4236 15.73200770  5211,6727.893,91.533,350.88800000000015,348.62800000000016,0.0
52623.0,STARLINK-3986,PAYLOAD,2022-06-14 14:00:01,15.73195139,0.0001754999999999,53.2128,287.4346,46.6343,125.7715,-0.00037037,-0.00052269,0.0,0 STARLINK-3986,1 52623U 22052AB  22165.58334491 -.00052269  00000-0 -37037-3 0  9991,2 52623  53.2128 287.4346 0001755  46.6343 125.7715 15.73195139  1305,6727.909000000002,91.533,350.955,348.593,0.0
52623.0,STARLINK-3986,PAYLOAD,2022-06-14 22:00:00,15.7323926,0.0001617,53.2142,285.7846,34.7749,226.5146,-0.0013552,-0.00186971,0.0,0 STARLINK-3986,1 52623U 22052AB  22165.91667824 -.00186971  00000-0 -13552-2 0  9990,2 52623  53.2142 285.7846 0001617  34.7749 226.5146 15.73239260  1304,6727.783,91.531,350.736,348.56,0.0
52623.0,STARLINK-3986,PAYLOAD,2022-06-15 04:00:00,15.73132802,0.0001582,53.2141,284.5466,41.9794,195.9702,0.0006456,0.00090708,0.0,0 STARLINK-3986,1 52623U 22052AB  22166.16667824  .00090708  00000-0  64560-3 0  9994,2 52623  53.2141 284.5466 0001582  41.9794 195.9702 15.73132802  5315,6728.087,91.537,351.016,348.88699999999994,0.0
52623.0,STARLINK-3986,PAYLOAD,2022-06-15 14:00:01,15.73229482,0.0001759,53.2145,282.4866,37.3495,41.714,-0.00036352,-0.00051394,0.0,0 STARLINK-3986,1 52623U 22052AB  22166.58334491 -.00051394  00000-0 -36352-3 0  9999,2 52623  53.2145 282.4866 0001759  37.3495  41.7140 15.73229482  1303,6727.811,91.531,350.86,348.49300000000005,0.0
52623.0,STARLINK-3986,PAYLOAD,2022-06-15 20:00:01,15.73214271,0.0001776,53.2139,281.2496,30.6959,25.1125,0.00034158,0.00047621,0.0,0 STARLINK-3986,1 52623U 22052AB  22166.83334491  .00047621  00000-0  34158-3 0  9995,2 52623  53.2139 281.2496 0001776  30.6959  25.1125 15.73214271  5428,6727.854,91.532,350.914,348.525,0.0
52623.0,STARLINK-3986,PAYLOAD,2022-06-15 22:00:00,15.73224054,0.0001719,53.2139,280.8368,30.8674,137.1794,0.00027798,0.00038613,0.0,0 STARLINK-3986,1 52623U 22052AB  22166.91667824  .00038613  00000-0  27798-3 0  9996,2 52623  53.2139 280.8368 0001719  30.8674 137.1794 15.73224054  1303,6727.8269999999975,91.532,350.848,348.535,0.0
52623.0,STARLINK-3986,PAYLOAD,2022-06-16 02:00:01,15.7321976,0.0001565999999999,53.2142,280.0109,33.9055,358.615,0.00042885,0.00060049,0.0,0 STARLINK-3986,1 52623U 22052AB  22167.08334491  .00060049  00000-0  42885-3 0  9998,2 52623  53.2142 280.0109 0001566  33.9055 358.6150 15.73219760  1303,6727.839,91.532,350.75699999999995,348.65,0.0
52623.0,STARLINK-3986,PAYLOAD,2022-06-19 14:00:01,15.73204951,0.0002114,53.213,262.6925,23.2009,43.0955,-0.00016225,-0.00023336,0.0,0 STARLINK-3986,1 52623U 22052AB  22170.58334491 -.00023336  00000-0 -16225-3 0  9996,2 52623  53.2130 262.6925 0002114  23.2009  43.0955 15.73204951  1307,6727.880999999999,91.533,351.168,348.324,0.0
52623.0,STARLINK-3986,PAYLOAD,2022-06-19 22:00:00,15.73185368,0.0002086,53.2131,261.0417,24.0677,131.1634,-6.8483e-05,-0.00010215,0.0,0 STARLINK-3986,1 52623U 22052AB  22170.91667824 -.00010215  00000-0 -68483-4 0  9998,2 52623  53.2131 261.0417 0002086  24.0677 131.1634 15.73185368  1308,6727.937,91.534,351.205,348.398,0.0
52623.0,STARLINK-3986,PAYLOAD,2022-06-20 14:00:01,15.73158724,0.0002158,53.2147,257.7436,22.4539,310.6162,0.00021671,0.00029849,0.0,0 STARLINK-3986,1 52623U 22052AB  22171.58334491  .00029849  00000-0  21671-3 0  9991,2 52623  53.2147 257.7436 0002158  22.4539 310.6162 15.73158724  1303,6728.013000000001,91.536,351.33,348.426,0.0
52623.0,STARLINK-3986,PAYLOAD,2022-06-20 20:00:01,15.73205815,0.0001862,53.2173,256.503,24.5387,285.1596,-1.8436e-05,-3.208e-05,0.0,0 STARLINK-3986,1 52623U 22052AB  22171.83334491 -.00003208  00000-0 -18436-4 0  9998,2 52623  53.2173 256.5030 0001862  24.5387 285.1596 15.73205815  6209,6727.879,91.533,350.996,348.491,0.0
52623.0,STARLINK-3986,PAYLOAD,2022-06-20 22:00:00,15.7320547,0.0001824,53.2175,256.09,26.0456,35.8868,-1.4708e-05,-2.685e-05,0.0,0 STARLINK-3986,1 52623U 22052AB  22171.91667824 -.00002685  00000-0 -14708-4 0  9992,2 52623  53.2175 256.0900 0001824  26.0456  35.8868 15.73205470  1309,6727.88,91.533,350.972,348.517,0.0
52623.0,STARLINK-3986,PAYLOAD,2022-06-21 12:00:00,15.73221998,0.0002391,53.2145,253.2068,25.8716,101.8048,-0.00013152,-0.00019058,0.0,0 STARLINK-3986,1 52623U 22052AB  22172.50001157 -.00019058  00000-0 -13152-3 0  9992,2 52623  53.2145 253.2068 0002391  25.8716 101.8048 15.73221998  6319,6727.831999999999,91.532,351.306,348.089,0.0
